{
  "type": "FeatureCollection",
  "features": [
    {
      "type": "Feature",
      "properties": {
        "norad_id": 31194,
        "name": "FENGYUN 1C DEB",
        "group": "fengyun-1c-debris",
        "lat": -43.65207665227555,
        "lon": 45.31781054835867,
        "alt_km": 755.7165798213218,
        "timestamp": "2025-12-10T23:33:13.098168+00:00",
        "meta_object_name": "FENGYUN 1C DEB",
        "meta_object_id": "1999-025BJY",
        "meta_epoch": "2025-12-10T04:07:14.212992",
        "meta_mean_motion": 14.36623879,
        "meta_eccentricity": 0.00574901,
        "meta_inclination": 98.9628,
        "meta_ra_of_asc_node": 233.1351,
        "meta_arg_of_pericenter": 286.8811,
        "meta_mean_anomaly": 72.6075,
        "meta_ephemeris_type": 0,
        "meta_classification_type": "U",
        "meta_norad_cat_id": 31194,
        "meta_element_set_no": 999,
        "meta_rev_at_epoch": 97090,
        "meta_bstar": 0.0014775889,
        "meta_mean_motion_dot": 4.384e-05,
        "meta_mean_motion_ddot": 0,
        "tle_line1": "1 31194U 99025BJY 25344.17169228  .00004384  00000+0  14776-2 0  9992",
        "tle_line2": "2 31194  98.9628 233.1351 0057490 286.8811  72.6075 14.36623879970900"
      },
      "geometry": {
        "type": "Point",
        "coordinates": [
          45.31781054835867,
          -43.65207665227555
        ]
      }
    },
    {
      "type": "Feature",
      "properties": {
        "norad_id": 31195,
        "name": "FENGYUN 1C DEB",
        "group": "fengyun-1c-debris",
        "lat": -15.411610420357059,
        "lon": -164.09413705052233,
        "alt_km": 748.0841329312025,
        "timestamp": "2025-12-10T23:33:13.098177+00:00",
        "meta_object_name": "FENGYUN 1C DEB",
        "meta_object_id": "1999-025BJZ",
        "meta_epoch": "2025-12-10T08:59:02.936256",
        "meta_mean_motion": 14.07978599,
        "meta_eccentricity": 0.01717993,
        "meta_inclination": 98.7795,
        "meta_ra_of_asc_node": 17.7568,
        "meta_arg_of_pericenter": 187.8367,
        "meta_mean_anomaly": 172.0112,
        "meta_ephemeris_type": 0,
        "meta_classification_type": "U",
        "meta_norad_cat_id": 31195,
        "meta_element_set_no": 999,
        "meta_rev_at_epoch": 96065,
        "meta_bstar": 0.00027613062,
        "meta_mean_motion_dot": 4.95e-06,
        "meta_mean_motion_ddot": 0,
        "tle_line1": "1 31195U 99025BJZ 25344.37433954  .00000495  00000+0  27613-3 0  9999",
        "tle_line2": "2 31195  98.7795  17.7568 0171799 187.8367 172.0112 14.07978599960653"
      },
      "geometry": {
        "type": "Point",
        "coordinates": [
          -164.09413705052233,
          -15.411610420357059
        ]
      }
    },
    {
      "type": "Feature",
      "properties": {
        "norad_id": 31196,
        "name": "FENGYUN 1C DEB",
        "group": "fengyun-1c-debris",
        "lat": 29.798586459939255,
        "lon": -6.674918873846567,
        "alt_km": 846.5770593221214,
        "timestamp": "2025-12-10T23:33:13.098186+00:00",
        "meta_object_name": "FENGYUN 1C DEB",
        "meta_object_id": "1999-025BKA",
        "meta_epoch": "2025-12-08T19:11:13.432992",
        "meta_mean_motion": 14.25445822,
        "meta_eccentricity": 0.00577315,
        "meta_inclination": 98.5268,
        "meta_ra_of_asc_node": 356.1324,
        "meta_arg_of_pericenter": 223.7518,
        "meta_mean_anomaly": 135.908,
        "meta_ephemeris_type": 0,
        "meta_classification_type": "U",
        "meta_norad_cat_id": 31196,
        "meta_element_set_no": 999,
        "meta_rev_at_epoch": 63439,
        "meta_bstar": 0.00095478472,
        "meta_mean_motion_dot": 2.251e-05,
        "meta_mean_motion_ddot": 0,
        "tle_line1": "1 31196U 99025BKA 25342.79946103  .00002251  00000+0  95478-3 0  9995",
        "tle_line2": "2 31196  98.5268 356.1324 0057731 223.7518 135.9080 14.25445822634393"
      },
      "geometry": {
        "type": "Point",
        "coordinates": [
          -6.674918873846567,
          29.798586459939255
        ]
      }
    },
    {
      "type": "Feature",
      "properties": {
        "norad_id": 31198,
        "name": "FENGYUN 1C DEB",
        "group": "fengyun-1c-debris",
        "lat": 6.284031713887804,
        "lon": 88.05941257967592,
        "alt_km": 833.9653466295085,
        "timestamp": "2025-12-10T23:33:13.098196+00:00",
        "meta_object_name": "FENGYUN 1C DEB",
        "meta_object_id": "1999-025BKC",
        "meta_epoch": "2025-12-09T12:36:36.042624",
        "meta_mean_motion": 13.75520391,
        "meta_eccentricity": 0.02039968,
        "meta_inclination": 98.6127,
        "meta_ra_of_asc_node": 87.699,
        "meta_arg_of_pericenter": 0.1889,
        "meta_mean_anomaly": 359.9306,
        "meta_ephemeris_type": 0,
        "meta_classification_type": "U",
        "meta_norad_cat_id": 31198,
        "meta_element_set_no": 999,
        "meta_rev_at_epoch": 62709,
        "meta_bstar": 0.0001575656,
        "meta_mean_motion_dot": 1.38e-06,
        "meta_mean_motion_ddot": 0,
        "tle_line1": "1 31198U 99025BKC 25343.52541716  .00000138  00000+0  15757-3 0  9994",
        "tle_line2": "2 31198  98.6127  87.6990 0203996   0.1889 359.9306 13.75520391627096"
      },
      "geometry": {
        "type": "Point",
        "coordinates": [
          88.05941257967592,
          6.284031713887804
        ]
      }
    },
    {
      "type": "Feature",
      "properties": {
        "norad_id": 31199,
        "name": "FENGYUN 1C DEB",
        "group": "fengyun-1c-debris",
        "lat": -64.13344935329283,
        "lon": -13.739991726715449,
        "alt_km": 826.4845521850684,
        "timestamp": "2025-12-10T23:33:13.098204+00:00",
        "meta_object_name": "FENGYUN 1C DEB",
        "meta_object_id": "1999-025BKD",
        "meta_epoch": "2025-12-05T16:58:40.008864",
        "meta_mean_motion": 14.09979297,
        "meta_eccentricity": 0.00635718,
        "meta_inclination": 98.7162,
        "meta_ra_of_asc_node": 322.7056,
        "meta_arg_of_pericenter": 279.9042,
        "meta_mean_anomaly": 258.7122,
        "meta_ephemeris_type": 0,
        "meta_classification_type": "U",
        "meta_norad_cat_id": 31199,
        "meta_element_set_no": 999,
        "meta_rev_at_epoch": 96060,
        "meta_bstar": 0.00037158052,
        "meta_mean_motion_dot": 6.24e-06,
        "meta_mean_motion_ddot": 0,
        "tle_line1": "1 31199U 99025BKD 25339.70740751  .00000624  00000+0  37158-3 0  9999",
        "tle_line2": "2 31199  98.7162 322.7056 0063571 279.9042 258.7122 14.09979297960603"
      },
      "geometry": {
        "type": "Point",
        "coordinates": [
          -13.739991726715449,
          -64.13344935329283
        ]
      }
    },
    {
      "type": "Feature",
      "properties": {
        "norad_id": 31201,
        "name": "FENGYUN 1C DEB",
        "group": "fengyun-1c-debris",
        "lat": -13.463962705200464,
        "lon": -152.04396492520058,
        "alt_km": 678.4172925186776,
        "timestamp": "2025-12-10T23:33:13.098213+00:00",
        "meta_object_name": "FENGYUN 1C DEB",
        "meta_object_id": "1999-025BKF",
        "meta_epoch": "2025-12-10T13:43:09.191424",
        "meta_mean_motion": 14.35146439,
        "meta_eccentricity": 0.01427722,
        "meta_inclination": 99.0011,
        "meta_ra_of_asc_node": 205.354,
        "meta_arg_of_pericenter": 357.6058,
        "meta_mean_anomaly": 33.2794,
        "meta_ephemeris_type": 0,
        "meta_classification_type": "U",
        "meta_norad_cat_id": 31201,
        "meta_element_set_no": 999,
        "meta_rev_at_epoch": 97220,
        "meta_bstar": 0.0013181462,
        "meta_mean_motion_dot": 4.176e-05,
        "meta_mean_motion_ddot": 0,
        "tle_line1": "1 31201U 99025BKF 25344.57163416  .00004176  00000+0  13181-2 0  9996",
        "tle_line2": "2 31201  99.0011 205.3540 0142772 357.6058  33.2794 14.35146439972203"
      },
      "geometry": {
        "type": "Point",
        "coordinates": [
          -152.04396492520058,
          -13.463962705200464
        ]
      }
    },
    {
      "type": "Feature",
      "properties": {
        "norad_id": 31202,
        "name": "FENGYUN 1C DEB",
        "group": "fengyun-1c-debris",
        "lat": -8.47800359120897,
        "lon": -150.4457219021599,
        "alt_km": 573.236666829087,
        "timestamp": "2025-12-10T23:33:13.098222+00:00",
        "meta_object_name": "FENGYUN 1C DEB",
        "meta_object_id": "1999-025BKG",
        "meta_epoch": "2025-12-10T09:49:32.087424",
        "meta_mean_motion": 14.84016743,
        "meta_eccentricity": 0.0068166,
        "meta_inclination": 96.5731,
        "meta_ra_of_asc_node": 30.0675,
        "meta_arg_of_pericenter": 185.068,
        "meta_mean_anomaly": 189.2827,
        "meta_ephemeris_type": 0,
        "meta_classification_type": "U",
        "meta_norad_cat_id": 31202,
        "meta_element_set_no": 999,
        "meta_rev_at_epoch": 99120,
        "meta_bstar": 0.0016478831,
        "meta_mean_motion_dot": 0.0001428,
        "meta_mean_motion_ddot": 0,
        "tle_line1": "1 31202U 99025BKG 25344.40939916  .00014280  00000+0  16479-2 0  9995",
        "tle_line2": "2 31202  96.5731  30.0675 0068166 185.0680 189.2827 14.84016743991203"
      },
      "geometry": {
        "type": "Point",
        "coordinates": [
          -150.4457219021599,
          -8.47800359120897
        ]
      }
    }
  ]
}